#aV2015  6  9  0  0  0.00000000     288 DD+AD WGS84 FIT  NGA
## 1848 172800.00000000   300.00000000 57182 0.0000000000000
+   31     1  2  3  4  5  6  7  9 10 11 12 13 14 15 16 17 18
+         19 20 21 22 23 24 25 26 27 28 29 30 31 32  0  0  0
+          0  0  0  0  0  0  0  0  0  0  0  0  0  0  0  0  0
+          0  0  0  0  0  0  0  0  0  0  0  0  0  0  0  0  0
+          0  0  0  0  0  0  0  0  0  0  0  0  0  0  0  0  0
++         2  2  2  2  2  2  2  2  2  2  2  2  2  2  2  2  2
++         2  2  2  2  2  2  2  2  2  2  2  2  2  2  0  0  0
++         0  0  0  0  0  0  0  0  0  0  0  0  0  0  0  0  0
++         0  0  0  0  0  0  0  0  0  0  0  0  0  0  0  0  0
++         0  0  0  0  0  0  0  0  0  0  0  0  0  0  0  0  0
%c cc cc ccc ccc cccc cccc cccc cccc ccccc ccccc ccccc ccccc
%c cc cc ccc ccc cccc cccc cccc cccc ccccc ccccc ccccc ccccc
%f  0.0000000  0.000000000  0.00000000000  0.000000000000000
%f  0.0000000  0.000000000  0.00000000000  0.000000000000000
%i    0    0    0    0      0      0      0      0         0
%i    0    0    0    0      0      0      0      0         0
/*      NGA, ST. LOUIS,MO.                                  
/*   EPHEMERIS COMPUTED FROM  1 DAYS OF DATA                
/*   EPOCHA SMOOTHER                                       
/* CCCCCCCCCCCCCCCCCCCCCCCCCCCCCCCCCCCCCCCCCCCCCCCCCCCCCCCCC
*  2015  6  9 17 20  0.00000000
P  1   4041.067857 -17474.928480 -19578.213879     -4.492085                    
V  1  22613.900347 -10274.970176  14063.942662      0.005012                    
P  2 -21143.088238  15271.116965   3872.053254    571.066524                    
V  2  -5804.357012  -1011.363798 -31078.370522      0.023561                    
P  3  -6691.206692 -18753.912151 -17544.273093    346.720846                    
V  3  19815.382688  10432.057814 -18727.208086      0.076528                    
P  4  12821.895431 -18677.260352 -13972.493900    -18.451028                    
V  4  16537.151563  -5946.682895  23944.375465     -0.019593                    
P  5 -13705.176839   9156.969528  20809.794376   -231.402538                    
V  5 -22175.788457 -14626.755299  -7965.166432      0.045135                    
P  6 -24121.356414   4943.972846  -9950.609144    180.688262                    
V  6  10001.935807  -8113.234342 -28277.676245      0.087877                    
P  7 -11183.965035 -10968.710433  21601.249493    467.630408                    
V  7  24138.042214 -12318.865076   5904.130021      0.023556                    
P  9  -7871.934801 -22203.344013  12243.632346   -168.314015                    
V  9   2952.144166 -15481.455515 -26177.814822     -0.047440                    
P 10 -23938.555201  -7762.452868   8740.789156   -178.262847                    
V 10  -8158.422362  -8665.517516 -28340.924548     -0.014567                    
P 11   5811.555075 -22409.270216 -13446.545950   -583.891065                    
V 11  13845.039922  -9676.468723  23156.890410     -0.025549                    
P 12   3440.992452  17962.357087 -19444.873121    300.059247                    
V 12 -20405.630108 -13260.882710 -15731.721030      0.032088                    
P 13 -12488.151977  18687.978113  14106.113595   -121.908879                    
V 13    912.712966 -18143.516581  24479.347308     -0.033697                    
P 14  14302.389398   5407.264840 -21488.136327     57.269593                    
V 14  -3492.131138  27611.315300   4420.053079     -0.027566                    
P 15  -3999.272317  25424.079868   5752.354643   -254.021979                    
V 15  -3905.919254  -7475.612745  30174.219708     -0.021308                    
P 16  14152.699468  -7027.981524  21336.524892   -120.621241                    
V 16  21752.425623  16206.391436  -8695.889828      0.038927                    
P 17 -14278.606512  -5163.051978 -21519.717362   -175.110727                    
V 17   2606.548966 -27845.125647   4684.658394     -0.016237                    
P 18  21188.100044  15966.814263   3679.715512    408.062170                    
V 18  -5328.941178    988.783039  30287.858852      0.029939                    
P 19   8161.301191 -23900.547394   7206.529929   -512.889772                    
V 19   1525.310235   9808.582717  30448.887236     -0.010401                    
P 20  -2809.202896  16163.130825  20729.123968    328.035914                    
V 20 -24071.505616 -11873.756329   6038.166406      0.035909                    
P 21  13847.824732  10149.960238  21041.434309   -453.784332                    
V 21 -21721.979890  12732.483143   8083.694005     -0.033877                    
P 22  24216.202154   7669.674346  -7824.359504    359.237618                    
V 22   6912.382259   8410.494277  28588.736389      0.037788                    
P 23   -855.454098 -26177.264701   2730.646698   -113.777932                    
V 23   3691.072827  -3183.684236 -31516.064451     -0.023996                    
P 24  -6811.191811  18298.925682 -17976.328660    -49.662711                    
V 24 -20867.652621   9426.392307  17681.760375     -0.006500                    
P 25  15643.641742  18602.297237 -11005.600327    -38.018534                    
V 25 -12596.372119  -5780.471716 -27768.532246     -0.040903                    
P 26  21301.522324    238.055269  15854.886312     29.991643                    
V 26  16054.325184  12335.102337 -21734.626814     -0.014591                    
P 27  12142.164325 -16534.399369  16786.640429     77.994254                    
V 27    994.644134  21429.385965  20478.027654      0.027343                    
P 28 -22633.352180 -13095.592334  -4284.348128    445.680710                    
V 28  -3875.829421  -5194.992354  31700.164869      0.027019                    
P 29   5293.927359  23648.261209  10952.067751    615.666279                    
V 29  -3309.596045  13590.987534 -27749.923623      0.023117                    
P 30 -20338.407111  -3948.142784  16648.464988    -46.545659                    
V 30  18630.438354 -10178.012514  20263.568009      0.064162                    
P 31  24883.962715  -7266.655534  -6430.901957    313.444406                    
V 31  -6532.779894   5416.177525 -30454.822910     -0.010998                    
P 32   7662.635178 -13623.176235 -21519.923033   -129.669357                    
V 32  21839.774296  16382.466354  -2060.564548      0.096481                    
EOF
